ARIANE 5 R/B            
1 28499U 04049H   26055.42837135  .00000824  00000+0  97111-4 0  9996
2 28499  98.2606 223.3912 0084863  34.8094 325.8630 14.85237559143828
CZ-2D R/B               
1 28738U 05024B   26055.49105741  .00037837  00000+0  48838-3 0  9999
2 28738  97.3617  70.1667 0007462  78.4118 281.7975 15.58860801137729
ALOS (DAICHI)           
1 28931U 06002A   26055.36387655  .00001425  00000+0  24724-3 0  9995
2 28931  98.1196  11.3888 0001487  54.1576 305.9767 14.69760534 71523
H-2A R/B                
1 28932U 06002B   26055.41052370  .00009448  00000+0  47768-3 0  9991
2 28932  98.2387 201.2980 0052047 286.8584  72.6943 15.16107662 92427
RESURS-DK 1             
1 29228U 06021A   26055.57474727  .00002237  00000+0  13378-3 0  9991
2 29228  69.9313 270.9493 0002863 174.2420 185.8779 15.12652561 85540
CZ-4B R/B               
1 29507U 06046C   26055.54735131  .00004835  00000+0  24683-3 0  9991
2 29507  97.5623 100.4911 0032118 315.0764  44.7870 15.16749127 58055
CZ-2C R/B               
1 31114U 07010B   26055.34035200  .00000123  00000+0  75750-4 0  9996
2 31114  98.3974 169.2889 0058375 334.0400  25.7852 14.20241015977829
COSMO-SKYMED 1          
1 31598U 07023A   26055.55893343  .00003129  00000+0  28117-3 0  9992
2 31598  97.8881 246.4866 0001351  83.9744 276.1631 14.96426075 12946
COSMOS 2428             
1 31792U 07029A   26055.50841903  .00000172  00000+0  11817-3 0  9998
2 31792  70.9404 231.0108 0008338 291.2308  68.7922 14.12942026962237
SL-16 R/B               
1 31793U 07029B   26055.55668091 -.00000177  00000+0 -67103-4 0  9996
2 31793  70.9753 199.9887 0002474 280.6809 150.2620 14.14835936963511
KORONAS-FOTON           
1 33504U 09003A   26055.60074436  .00012369  00000+0  27968-3 0  9990
2 33504  82.4297 289.4831 0010076 195.8718 164.2215 15.42962560943723
CZ-2C R/B               
1 37731U 11030B   26055.44860906  .00001663  00000+0  21556-3 0  9998
2 37731  97.8522  12.9797 0053621  34.8280  78.5792 14.81162471788133
H-2A R/B                
1 38341U 12025E   26055.47733071  .00003314  00000+0  30309-3 0  9997
2 38341  98.4707  21.4705 0044799 357.9144   2.1880 14.95037730746242
SHIJIAN-16 (SJ-16)      
1 39358U 13057A   26055.62315875  .00000820  00000+0  82956-4 0  9992
2 39358  74.9716 209.8218 0016086 146.0647 214.1574 14.92278165669553
SL-4 R/B                
1 39679U 14021B   26055.18672961  .00015115  00000+0  33825-3 0  9996
2 39679  51.6067  43.1269 0098563  53.7630 307.2415 15.38674173654193
ALOS-2                  
1 39766U 14029A   26055.59811141  .00002177  00000+0  29819-3 0  9993
2 39766  97.9194 154.3845 0001628 100.2049 259.9347 14.79485642634939
YAOGAN-29               
1 41038U 15069A   26055.56986398  .00000801  00000+0  10530-3 0  9999
2 41038  98.0161  83.9634 0002564  58.7054 301.4410 14.82979882553938
ASTRO-H (HITOMI)        
1 41337U 16012A   26055.41308752  .00003249  00000+0  18980-3 0  9992
2 41337  30.9995  82.2163 0009938 199.3401 160.6861 15.09896449550220
HXMT (HUIYAN)           
1 42758U 17034A   26055.54645627  .00004849  00000+0  24792-3 0  9999
2 42758  43.0139  89.7326 0031243 153.6076 206.6371 15.17274945480545
CZ-2C R/B               
1 43521U 18054D   26055.31705060  .01151382  89938-3  77450-3 0  9990
2 43521  35.1263  32.0350 0010779 188.7896 171.2663 16.15827336426753
SAOCOM 1A               
1 43641U 18076A   26055.59596897  .00000253  00000+0  38351-4 0  9999
2 43641  97.8883 243.9534 0001276  79.5959 280.5398 14.82151211399421
H-2A R/B                
1 43682U 18084L   26055.55154741  .00018631  00000+0  45273-3 0  9996
2 43682  98.8751 270.1374 0026212  69.4250 290.9801 15.40717121403753
SAOCOM 1B               
1 46265U 20059A   26055.62720883  .00000898  00000+0  11931-3 0  9995
2 46265  97.8883 243.0820 0001479  82.8238 277.3144 14.82158351296811
CSS (TIANHE)            
1 48274U 21035A   26055.33849409  .00017817  00000+0  21705-3 0  9995
2 48274  41.4667 289.3617 0005474 185.8105 174.2671 15.60074012275524
COSMOS 2550             
1 48865U 21056A   26052.86751211 -.00000189  00000+0  98957-7 0  9994
2 48865  67.1417  88.7921 0008383 269.2454  90.7739 15.33831385261035
CZ-2C R/B               
1 52794U 22058K   26055.32794866  .00035751  00000+0  54144-3 0  9998
2 52794  50.1897  26.9679 0042113 143.8974 216.4853 15.53231999208056
CZ-2C R/B               
1 54039U 22132E   26055.48822145  .00039236  00000+0  47004-3 0  9993
2 54039  97.2975  58.4185 0020432 133.5559 226.7399 15.60594123188310
GSLV R/B                
1 54149U 22138AN  26055.34917940  .00003264  00000+0  28254-3 0  9992
2 54149  87.3878 170.8260 0021105 194.1031 165.9614 14.96664165181930
XRISM                   
1 57800U 23137A   26055.56446148  .00006040  00000+0  34387-3 0  9999
2 57800  31.0036   8.5443 0008326 267.7718  92.1967 15.11320203135805
ACS3                    
1 59588U 24077B   26055.60620831  .00017994  00000+0  14691-1 0  9990
2 59588  97.2136 359.6603 0051455 113.5156 247.1426 13.88988446 92386
SZ-21 MODULE            
1 66515U 25246C   26055.63442227  .00033057  00000+0  29807-3 0  9996
2 66515  41.4748 283.6611 0001483 290.2519  69.8163 15.67459046 16023
